FENGYUN 1C DEB          
1 32183U 99025CUD 17344.98195571  .00000489  00000-0  32788-3 0  9998
2 32183  98.9881  55.9805 0044427 337.2039  22.7155 14.05116147316633
